CUBEBUG-2 (LO-74)       
1 39440U 13066AA  26159.82371896  .00004079  00000+0  37815-3 0  9999
2 39440  97.8903 108.7669 0059218  56.2091 304.4748 14.93696969675744
FUNCUBE-1 (AO-73)       
1 39444U 13066AE  26159.43863649  .00005403  00000+0  33773-3 0  9993
2 39444  97.8273 130.7025 0034749 231.4089 128.4026 15.09385885678347
UWE-3                   
1 39446U 13066AG  26159.79360539  .00004534  00000+0  39037-3 0  9997
2 39446  97.8687 115.8113 0048794 349.3525  10.6659 14.96958825676324
UNISAT-6                
1 40012U 14033C   26159.66162060  .00003038  00000+0  32885-3 0  9990
2 40012  97.7872 312.5251 0046431  96.5639 264.0866 14.88202067644895
DUCHIFAT-1              
1 40021U 14033M   26159.63885756  .00104418  00000+0  11441-2 0  9999
2 40021  98.0467 217.6113 0004457 130.5310 229.6335 15.62908297654416
QB50P1                  
1 40025U 14033R   26159.77964730  .00009210  00000+0  45446-3 0  9995
2 40025  98.0972 170.3368 0007205 249.0996 110.9465 15.18133831651753
LILACSAT-2              
1 40908U 15049K   26159.88677059  .00018585  00000+0  31941-3 0  9990
2 40908  97.4660 196.4141 0005288 285.3718  74.6949 15.51171943594462
FOX-1A (AO-85)          
1 40967U 15058D   26159.76689639  .00003039  00000+0  27655-3 0  9994
2 40967  64.7758 305.1507 0129970  59.8929 301.4993 14.90929725112311
CAS-2T & KS-1Q          
1 41847U 16066G   26159.79065959  .00001710  00000+0  24711-3 0  9992
2 41847  98.3822 235.6228 0342480 154.8869 206.9427 14.44666773503587
RADFXSAT (FOX-1B)       
1 43017U 17073E   26159.34389375  .00007664  00000+0  33533-3 0  9990
2 43017  97.4721  26.7398 0150895 359.9259   0.1924 15.12571253464059
DIWATA-2B               
1 43678U 18084H   26159.83379508  .00002814  00000+0  22880-3 0  9992
2 43678  98.1170 355.6802 0012014 197.6736 162.4070 15.00413798414964
ES'HAIL 2               
1 43700U 18090A   26159.74067315  .00000161  00000+0  00000+0 0  9994
2 43700   0.0176 286.6340 0001921 190.0015  72.9424  1.00273374 27596
FOX-1CLIFF (AO-95)      
1 43770U 18099N   26159.42559166  .00009800  00000+0  37741-3 0  9990
2 43770  97.4389 219.7049 0008894  29.5478 330.6261 15.26525509411882
ITASAT                  
1 43786U 18099AE  26159.12858900  .00007372  00000+0  35522-3 0  9999
2 43786  97.4031 210.8218 0013094  31.6283 328.5736 15.18945561411539
JY1SAT (JO-97)          
1 43803U 18099AX  26159.41726799  .00014204  00000+0  44241-3 0  9991
2 43803  97.4131 222.2231 0004224 306.8306  53.2548 15.33373436412289
UWE-4                   
1 43880U 18111E   26159.73543037  .00034399  00000+0  71406-3 0  9998
2 43880  97.5854  87.7396 0007085  15.0599 345.0859 15.45597672409471
TIANYAN 01              
1 44881U 19093C   26159.83257441  .00001294  00000+0  15202-3 0  9992
2 44881  97.7527 232.2681 0014936 111.5887 248.6922 14.86507943350178
RS-44 & BREEZE-KM R/B   
1 44909U 19096E   26159.79612789  .00000028  00000+0  64219-4 0  9998
2 44909  82.5218 345.2821 0217788 163.7359 197.0880 12.79748663301275
SALSAT                  
1 46495U 20068K   26159.64193340  .00008099  00000+0  28424-3 0  9995
2 46495  97.8856 162.1872 0008838 342.8345  17.2593 15.29677178314059
XW-3 (CAS-9)            
1 50466U 21131B   26159.86312545  .00000394  00000+0  13520-3 0  9995
2 50466  98.4972 252.2979 0005231 115.9447 244.2282 14.41349823233911
GREENCUBE (IO-117)      
1 53109U 22080E   26152.46502029 -.00000003  00000+0  00000+0 0  9996
2 53109  70.1435 303.7143 0008869 293.3663  66.6064  6.42583280 91055
UMKA 1 (RS40S)          
1 57172U 23091G   26159.80334791  .00005559  00000+0  25533-3 0  9999
2 57172  97.5054 218.5333 0013846 143.9336 216.2836 15.20720894162735
CUBESX-HSE 3 (RS42S)    
1 57178U 23091N   26159.80851986  .00012913  00000+0  43251-3 0  9994
2 57178  97.5094 225.2910 0012131 120.5230 239.7210 15.31002109163147
MONITOR-3 (RS58S)       
1 57180U 23091Q   26159.81463946  .00009948  00000+0  36964-3 0  9990
2 57180  97.5086 223.2003 0013016 126.6722 233.5715 15.27671789163017
MONITOR-4 (RS57S)       
1 57182U 23091S   26159.79417848  .00010882  00000+0  40285-3 0  9999
2 57182  97.5080 223.1502 0013011 126.9912 233.2520 15.27767265163011
MONITOR-2 (RS39S)       
1 57184U 23091U   26159.81413426  .00004660  00000+0  22666-3 0  9992
2 57184  97.5076 218.1515 0012386 136.8144 223.4064 15.18832872162680
SVYATOBOR 1 (RS60S)     
1 57187U 23091X   26159.80011884  .00009639  00000+0  37169-3 0  9991
2 57187  97.5091 223.5715 0010856 119.4817 240.7505 15.26473318163033
VIZARD-METEO (RS38S)    
1 57189U 23091Z   26159.80833209  .00016140  00000+0  46541-3 0  9995
2 57189  97.5093 229.1273 0008684 102.6705 257.5509 15.35758121163403
POLYTECH-UNIVERSE 3 (R*)
1 57191U 23091AB  26159.84244196  .00005336  00000+0  25720-3 0  9994
2 57191  97.5051 217.6842 0016337 153.6915 206.5152 15.19033373162681
UTMN 2 (RS27S)          
1 57203U 23091AP  26159.83070058  .00012266  00000+0  40077-3 0  9993
2 57203  97.5089 226.9372 0009484 108.5693 251.6579 15.31845517163268
